{
    "links": {
        "self": "http://www.neowsapp.com/rest/v1/neo/3765657?api_key=iIulBulltgU6a56xZRHN4H3l9WmuAYTsLGpBGhQ2"
    },
    "id": "3765657",
    "neo_reference_id": "3765657",
    "name": "(2016 XV17)",
    "designation": "2016 XV17",
    "nasa_jpl_url": "http://ssd.jpl.nasa.gov/sbdb.cgi?sstr=3765657",
    "absolute_magnitude_h": 24.7,
    "estimated_diameter": {
        "kilometers": {
            "estimated_diameter_min": 0.0305179233,
            "estimated_diameter_max": 0.0682401509
        },
        "meters": {
            "estimated_diameter_min": 30.5179232594,
            "estimated_diameter_max": 68.2401509401
        },
        "miles": {
            "estimated_diameter_min": 0.0189629525,
            "estimated_diameter_max": 0.0424024508
        },
        "feet": {
            "estimated_diameter_min": 100.1244233463,
            "estimated_diameter_max": 223.8850168104
        }
    },
    "is_potentially_hazardous_asteroid": false,
    "close_approach_data": [
        {
            "close_approach_date": "2016-12-09",
            "close_approach_date_full": "2016-Dec-09 02:05",
            "epoch_date_close_approach": 1481249100000,
            "relative_velocity": {
                "kilometers_per_second": "11.0409760468",
                "kilometers_per_hour": "39747.5137684868",
                "miles_per_hour": "24697.5593190912"
            },
            "miss_distance": {
                "astronomical": "0.0504564608",
                "lunar": "19.6275632512",
                "kilometers": "7548179.063418496",
                "miles": "4690220.9815714048"
            },
            "orbiting_body": "Earth"
        },
        {
            "close_approach_date": "2120-11-30",
            "close_approach_date_full": "2120-Nov-30 11:49",
            "epoch_date_close_approach": 4762410540000,
            "relative_velocity": {
                "kilometers_per_second": "14.8056703779",
                "kilometers_per_hour": "53300.4133605181",
                "miles_per_hour": "33118.8040683731"
            },
            "miss_distance": {
                "astronomical": "0.1703985348",
                "lunar": "66.2850300372",
                "kilometers": "25491257.857200876",
                "miles": "15839533.1435530488"
            },
            "orbiting_body": "Earth"
        }
    ],
    "orbital_data": {
        "orbit_id": "3",
        "orbit_determination_date": "2017-04-06 08:21:36",
        "first_observation_date": "2016-12-05",
        "last_observation_date": "2016-12-09",
        "data_arc_in_days": 4,
        "observations_used": 39,
        "orbit_uncertainty": "8",
        "minimum_orbit_intersection": ".0114286",
        "jupiter_tisserand_invariant": "3.698",
        "epoch_osculation": "2457728.5",
        "eccentricity": ".5283953026979695",
        "semi_major_axis": "1.958078168741006",
        "inclination": "2.867810613175017",
        "ascending_node_longitude": "71.91758893918751",
        "orbital_period": "1000.791169957925",
        "perihelion_distance": ".9234388620628166",
        "perihelion_argument": "48.44815531779174",
        "aphelion_distance": "2.992717475419196",
        "perihelion_time": "2457762.944972262132",
        "mean_anomaly": "347.6096128876828",
        "mean_motion": ".3597154039789688",
        "equinox": "J2000",
        "orbit_class": {
            "orbit_class_type": "APO",
            "orbit_class_description": "Near-Earth asteroid orbits which cross the Earth’s orbit similar to that of 1862 Apollo",
            "orbit_class_range": "a (semi-major axis) > 1.0 AU; q (perihelion) < 1.017 AU"
        }
    },
    "is_sentry_object": false
}